{
  "links" : {
    "next" : "https://api.nasa.gov/neo/rest/v1/feed?start_date=2011-04-09&end_date=2011-04-09&detailed=true&api_key=t0TVs3DtDT2H8Oy2Zy8m2eVrNsAVKAexjcZXUckd",
    "prev" : "https://api.nasa.gov/neo/rest/v1/feed?start_date=2011-04-07&end_date=2011-04-07&detailed=true&api_key=t0TVs3DtDT2H8Oy2Zy8m2eVrNsAVKAexjcZXUckd",
    "self" : "https://api.nasa.gov/neo/rest/v1/feed?start_date=2011-04-08&end_date=2011-04-08&detailed=true&api_key=t0TVs3DtDT2H8Oy2Zy8m2eVrNsAVKAexjcZXUckd"
  },
  "element_count" : 6,
  "near_earth_objects" : {
    "2011-04-08" : [ {
      "links" : {
        "self" : "https://api.nasa.gov/neo/rest/v1/neo/3563434?api_key=t0TVs3DtDT2H8Oy2Zy8m2eVrNsAVKAexjcZXUckd"
      },
      "neo_reference_id" : "3563434",
      "name" : "(2011 GL60)",
      "nasa_jpl_url" : "http://ssd.jpl.nasa.gov/sbdb.cgi?sstr=3563434",
      "absolute_magnitude_h" : 21.0,
      "estimated_diameter" : {
        "kilometers" : {
          "estimated_diameter_min" : 0.1677084622,
          "estimated_diameter_max" : 0.3750075218
        },
        "meters" : {
          "estimated_diameter_min" : 167.7084621628,
          "estimated_diameter_max" : 375.0075217981
        },
        "miles" : {
          "estimated_diameter_min" : 0.1042091748,
          "estimated_diameter_max" : 0.2330187988
        },
        "feet" : {
          "estimated_diameter_min" : 550.2246310023,
          "estimated_diameter_max" : 1230.3396778159
        }
      },
      "is_potentially_hazardous_asteroid" : false,
      "close_approach_data" : [ {
        "close_approach_date" : "2011-04-08",
        "epoch_date_close_approach" : 1302246000000,
        "relative_velocity" : {
          "kilometers_per_second" : "4.6312535266",
          "kilometers_per_hour" : "16672.5126956652",
          "miles_per_hour" : "10359.6510135926"
        },
        "miss_distance" : {
          "astronomical" : "0.283847561",
          "lunar" : "110.4167022705",
          "kilometers" : "42462992",
          "miles" : "26385280"
        },
        "orbiting_body" : "Earth"
      } ],
      "orbital_data" : {
        "orbit_id" : "15",
        "orbit_determination_date" : "2017-04-06 08:53:45",
        "orbit_uncertainty" : "3",
        "minimum_orbit_intersection" : ".28135",
        "jupiter_tisserand_invariant" : "3.783",
        "epoch_osculation" : "2458000.5",
        "eccentricity" : ".3523968811094024",
        "semi_major_axis" : "1.966102615933545",
        "inclination" : "8.947614369119091",
        "ascending_node_longitude" : "174.5408230200678",
        "orbital_period" : "1006.949518136273",
        "perihelion_distance" : "1.273254186137526",
        "perihelion_argument" : "22.9207119656268",
        "aphelion_distance" : "2.658951045729563",
        "perihelion_time" : "2457670.128626307680",
        "mean_anomaly" : "118.1128670177678",
        "mean_motion" : ".3575154399659588",
        "equinox" : "J2000"
      }
    }, {
      "links" : {
        "self" : "https://api.nasa.gov/neo/rest/v1/neo/3561024?api_key=t0TVs3DtDT2H8Oy2Zy8m2eVrNsAVKAexjcZXUckd"
      },
      "neo_reference_id" : "3561024",
      "name" : "(2011 GZ2)",
      "nasa_jpl_url" : "http://ssd.jpl.nasa.gov/sbdb.cgi?sstr=3561024",
      "absolute_magnitude_h" : 26.1,
      "estimated_diameter" : {
        "kilometers" : {
          "estimated_diameter_min" : 0.0160160338,
          "estimated_diameter_max" : 0.0358129403
        },
        "meters" : {
          "estimated_diameter_min" : 16.0160337979,
          "estimated_diameter_max" : 35.8129403019
        },
        "miles" : {
          "estimated_diameter_min" : 0.0099518989,
          "estimated_diameter_max" : 0.0222531225
        },
        "feet" : {
          "estimated_diameter_min" : 52.5460443254,
          "estimated_diameter_max" : 117.4965270602
        }
      },
      "is_potentially_hazardous_asteroid" : false,
      "close_approach_data" : [ {
        "close_approach_date" : "2011-04-08",
        "epoch_date_close_approach" : 1302246000000,
        "relative_velocity" : {
          "kilometers_per_second" : "15.5554280299",
          "kilometers_per_hour" : "55999.5409076728",
          "miles_per_hour" : "34795.9369601037"
        },
        "miss_distance" : {
          "astronomical" : "0.0068454723",
          "lunar" : "2.6628887653",
          "kilometers" : "1024068.125",
          "miles" : "636326.4375"
        },
        "orbiting_body" : "Earth"
      } ],
      "orbital_data" : {
        "orbit_id" : "10",
        "orbit_determination_date" : "2017-04-06 08:53:53",
        "orbit_uncertainty" : "7",
        "minimum_orbit_intersection" : ".00130659",
        "jupiter_tisserand_invariant" : "3.794",
        "epoch_osculation" : "2458000.5",
        "eccentricity" : ".580217148547488",
        "semi_major_axis" : "1.836729734214148",
        "inclination" : "6.997042112861171",
        "ascending_node_longitude" : "18.54184366760658",
        "orbital_period" : "909.2144136568023",
        "perihelion_distance" : ".7710276451760297",
        "perihelion_argument" : "247.2371612285456",
        "aphelion_distance" : "2.902431823252266",
        "perihelion_time" : "2458434.608534757289",
        "mean_anomaly" : "188.1163714903292",
        "mean_motion" : ".3959462087189126",
        "equinox" : "J2000"
      }
    }, {
      "links" : {
        "self" : "https://api.nasa.gov/neo/rest/v1/neo/3653250?api_key=t0TVs3DtDT2H8Oy2Zy8m2eVrNsAVKAexjcZXUckd"
      },
      "neo_reference_id" : "3653250",
      "name" : "(2013 UH5)",
      "nasa_jpl_url" : "http://ssd.jpl.nasa.gov/sbdb.cgi?sstr=3653250",
      "absolute_magnitude_h" : 24.1,
      "estimated_diameter" : {
        "kilometers" : {
          "estimated_diameter_min" : 0.040230458,
          "estimated_diameter_max" : 0.0899580388
        },
        "meters" : {
          "estimated_diameter_min" : 40.2304579834,
          "estimated_diameter_max" : 89.9580388169
        },
        "miles" : {
          "estimated_diameter_min" : 0.0249980399,
          "estimated_diameter_max" : 0.0558973165
        },
        "feet" : {
          "estimated_diameter_min" : 131.9896957704,
          "estimated_diameter_max" : 295.1379320721
        }
      },
      "is_potentially_hazardous_asteroid" : false,
      "close_approach_data" : [ {
        "close_approach_date" : "2011-04-08",
        "epoch_date_close_approach" : 1302246000000,
        "relative_velocity" : {
          "kilometers_per_second" : "9.4749497134",
          "kilometers_per_hour" : "34109.8189681088",
          "miles_per_hour" : "21194.5150138229"
        },
        "miss_distance" : {
          "astronomical" : "0.4882428899",
          "lunar" : "189.9264831543",
          "kilometers" : "73040096",
          "miles" : "45385012"
        },
        "orbiting_body" : "Earth"
      } ],
      "orbital_data" : {
        "orbit_id" : "14",
        "orbit_determination_date" : "2017-04-06 08:43:59",
        "orbit_uncertainty" : "7",
        "minimum_orbit_intersection" : ".040617",
        "jupiter_tisserand_invariant" : "4.844",
        "epoch_osculation" : "2458000.5",
        "eccentricity" : ".2588464906907624",
        "semi_major_axis" : "1.335485948096113",
        "inclination" : "14.38705420107014",
        "ascending_node_longitude" : "39.20818278107468",
        "orbital_period" : "563.7121701195414",
        "perihelion_distance" : ".9898000970646089",
        "perihelion_argument" : "38.76258479152578",
        "aphelion_distance" : "1.681171799127618",
        "perihelion_time" : "2457760.800722841528",
        "mean_anomaly" : "153.0776597545356",
        "mean_motion" : ".6386237854748781",
        "equinox" : "J2000"
      }
    } ]
  }
}